{
  "norad_id": 65477,
  "name": "STARLINK-35071",
  "history": [
    {
      "epoch": "2026-03-28T15:32:58.323264Z",
      "apogee_km": 475.962409965844,
      "perigee_km": 474.36833183437284,
      "latitude_deg": -1.5690749575275056e-05,
      "longitude_deg": 110.99614220154028,
      "height_km": 475.7240778700461,
      "semi_major_axis_km": 6853.302370900108,
      "eccentricity": 0.0001163,
      "inclination_deg": 53.1587,
      "raan_deg": 170.3045,
      "arg_perigee_deg": 64.786,
      "mean_anomaly_deg": 295.3261,
      "mean_motion_rev_day": 15.30216645
    }
  ]
}