{"fetched_at":"2026-03-29T16:36:15Z","count":15609,"tles":[{"name":"STARLINK-35071","line1":"1 65477U 25195V   26087.64789726  .00028995  00000+0  98677-3 0  9995","line2":"2 65477  53.1587 170.3045 0001163  64.7860 295.3261 15.30216645 32873","category":"Starlink"}]}